[{"OBJECT_NAME":"OBJECT B","OBJECT_ID":"2024-205B","EPOCH":"2026-03-09T23:46:05.115936","MEAN_MOTION":15.28158697,"ECCENTRICITY":0.00105957,"INCLINATION":97.4192,"RA_OF_ASC_NODE":146.9311,"ARG_OF_PERICENTER":34.0947,"MEAN_ANOMALY":326.0972,"EPHEMERIS_TYPE":0,"CLASSIFICATION_TYPE":"U","NORAD_CAT_ID":61895,"ELEMENT_SET_NO":999,"REV_AT_EPOCH":7352,"BSTAR":0.00054154807,"MEAN_MOTION_DOT":0.00014827,"MEAN_MOTION_DDOT":0},{"OBJECT_NAME":"STARLINK-33930","OBJECT_ID":"2025-091B","EPOCH":"2026-03-09T23:36:47.198304","MEAN_MOTION":15.27610061,"ECCENTRICITY":0.00013771,"INCLINATION":43.0043,"RA_OF_ASC_NODE":51.1728,"ARG_OF_PERICENTER":286.4018,"MEAN_ANOMALY":73.6682,"EPHEMERIS_TYPE":0,"CLASSIFICATION_TYPE":"U","NORAD_CAT_ID":63776,"ELEMENT_SET_NO":999,"REV_AT_EPOCH":4894,"BSTAR":0.0013300203,"MEAN_MOTION_DOT":0.00036552,"MEAN_MOTION_DDOT":0}]
